2026-134A               
1 69538U 26134A   26194.64065377  .00002420  00000+0  15490-3 0  9996
2 69538  97.7005 264.8493 0015943 175.9385 184.1976 15.09452984  4307
2026-134B               
1 69539U 26134B   26194.63770126  .00002437  00000+0  15528-3 0  9991
2 69539  97.6978 264.8443 0016057 178.3909 181.7374 15.09609403  4290
2026-134C               
1 69540U 26134C   26194.63710287  .00002498  00000+0  15898-3 0  9992
2 69540  97.6986 264.8472 0015542 179.5077 180.6169 15.09641736  4295
2026-134D               
1 69541U 26134D   26194.63602035  .00002495  00000+0  15851-3 0  9990
2 69541  97.7024 264.8626 0016579 179.5104 180.6144 15.09699432  4292
2026-134E               
1 69542U 26134E   26194.56932791  .00002449  00000+0  15560-3 0  9994
2 69542  97.7044 264.8033 0016310 180.2386 179.8837 15.09720677  4285
2026-134F               
1 69543U 26134F   26194.63474455  .00002505  00000+0  15888-3 0  9997
2 69543  97.6997 264.8543 0015607 181.7327 178.3850 15.09766365  4291
2026-134G               
1 69544U 26134G   26194.63315929  .00002655  00000+0  16771-3 0  9996
2 69544  97.7041 264.8718 0016052 182.5157 177.5994 15.09851680  4297
2026-134H               
1 69545U 26134H   26194.69818397  .00002607  00000+0  16448-3 0  9998
2 69545  97.7025 264.9352 0015918 183.7041 176.4073 15.09918402  4292
STARLINK-37880          
1 69546U 26135A   26195.91670139  .00071787  00000+0  13110-2 0  9993
2 69546  97.2846 224.2103 0000191 148.3004  63.0347 15.49158450  5766
STARLINK-37881          
1 69547U 26135B   26195.91670139  .00081380  00000+0  14845-2 0  9990
2 69547  97.2839 224.3039 0001303  65.2233   3.5229 15.49151537  5762
STARLINK-37265          
1 69548U 26135C   26195.91670139  .00081134  00000+0  14812-2 0  9992
2 69548  97.2845 224.3830 0001851  83.7949 176.7007 15.49128979  5767
STARLINK-37871          
1 69549U 26135D   26195.91670139  .00065279  00000+0  11935-2 0  9998
2 69549  97.2840 224.2932 0001623  71.3764 337.0905 15.49151926  5767
STARLINK-37865          
1 69550U 26135E   26195.91670139  .00064788  00000+0  11845-2 0  9994
2 69550  97.2839 224.3051 0001945  90.8027 345.6271 15.49153747  5769
STARLINK-37862          
1 69551U 26135F   26195.91670139 -.02446480  00000+0 -44514-1 0  9990
2 69551  97.2848 224.3775 0001907  99.6684 138.5514 15.53352312  5760
STARLINK-37861          
1 69552U 26135G   26195.91670139  .00061238  00000+0  11195-2 0  9991
2 69552  97.2837 224.3293 0000484 131.4997 359.9235 15.49172850  5766
STARLINK-37859          
1 69553U 26135H   26195.91670139  .00064375  00000+0  11774-2 0  9990
2 69553  97.2844 224.3465 0001633  79.6375  90.9304 15.49146989  5769
STARLINK-37860          
1 69554U 26135J   26195.91670139  .00078691  00000+0  14373-2 0  9995
2 69554  97.2846 224.3837 0000582 102.2873 157.5351 15.49125878  5769
STARLINK-37858          
1 69555U 26135K   26195.91670139  .00076215  00000+0  13923-2 0  9996
2 69555  97.2847 224.3716 0001609  88.6898 139.2481 15.49129804  5766
STARLINK-37927          
1 69556U 26135L   26195.91670139  .00061248  00000+0  11204-2 0  9997
2 69556  97.2837 224.3235 0001118  86.6208  30.2033 15.49155324  5769
STARLINK-37929          
1 69557U 26135M   26195.91670139  .00077429  00000+0  14131-2 0  9998
2 69557  97.2838 224.2830 0001576  93.9606 285.8942 15.49154320  5764
STARLINK-37954          
1 69558U 26135N   26195.91670139  .00079462  00000+0  14497-2 0  9993
2 69558  97.2837 224.2862 0000844  92.6204 294.0564 15.49156021  5768
STARLINK-37958          
1 69559U 26135P   26195.91670139 -.02819815  00000+0 -53008-1 0  9992
2 69559  97.2835 224.4458 0001652  55.7966 334.6389 15.52373536  5765
STARLINK-37950          
1 69560U 26135Q   26195.91670139  .00074906  00000+0  13684-2 0  9991
2 69560  97.2843 224.3852 0001402  88.8334 168.6995 15.49135505  5768
STARLINK-37952          
1 69561U 26135R   26195.91670139  .00061672  00000+0  11281-2 0  9999
2 69561  97.2838 224.3350 0001247  70.1868  73.3184 15.49154685  5761
STARLINK-37935          
1 69562U 26135S   26195.91670139  .00074542  00000+0  13609-2 0  9996
2 69562  97.2839 224.2897 0001663  89.1794 307.1236 15.49156226  5767
STARLINK-37936          
1 69563U 26135T   26195.91670139  .00063899  00000+0  11684-2 0  9991
2 69563  97.2835 224.3223 0001672  88.3054  25.9617 15.49155134  5763
STARLINK-37932          
1 69564U 26135U   26195.91670139  .00069119  00000+0  12632-2 0  9997
2 69564  97.2841 224.4201 0000966  79.3239 266.4345 15.49148875  5762
STARLINK-37916          
1 69565U 26135V   26195.91670139  .00075655  00000+0  13807-2 0  9995
2 69565  97.2843 224.3812 0001433  86.8729 162.6515 15.49162745  5767
STARLINK-37909          
1 69566U 26135W   26195.91670139 -.03199248  00000+0 -58722-1 0  9990
2 69566  97.2841 224.4904 0002801  90.5106  42.8853 15.52874764  5769
STARLINK-37934          
1 69567U 26135X   26195.91670139  .00068051  00000+0  12435-2 0  9995
2 69567  97.2840 224.3819 0001270  60.5142 191.8241 15.49157909  5766
