OBJECT_NAME,OBJECT_ID,EPOCH,MEAN_MOTION,ECCENTRICITY,INCLINATION,RA_OF_ASC_NODE,ARG_OF_PERICENTER,MEAN_ANOMALY,EPHEMERIS_TYPE,CLASSIFICATION_TYPE,NORAD_CAT_ID,ELEMENT_SET_NO,REV_AT_EPOCH,BSTAR,MEAN_MOTION_DOT,MEAN_MOTION_DDOT
2026-134A,2026-134A,2026-07-13T15:22:32.485728,15.09452984,.00159438,97.7005,264.8493,175.9385,184.1976,0,U,69538,999,430,.15490246E-3,.242E-4,0
2026-134B,2026-134B,2026-07-13T15:18:17.388864,15.09609403,.00160572,97.6978,264.8443,178.3909,181.7374,0,U,69539,999,429,.15527681E-3,.2437E-4,0
2026-134C,2026-134C,2026-07-13T15:17:25.687968,15.09641736,.00155426,97.6986,264.8472,179.5077,180.6169,0,U,69540,999,429,.15898449E-3,.2498E-4,0
2026-134D,2026-134D,2026-07-13T15:15:52.158240,15.09699432,.0016579,97.7024,264.8626,179.5104,180.6144,0,U,69541,999,429,.15851E-3,.2495E-4,0
2026-134E,2026-134E,2026-07-13T13:39:49.931424,15.09720677,.001631,97.7044,264.8033,180.2386,179.8837,0,U,69542,999,428,.1556E-3,.2449E-4,0
2026-134F,2026-134F,2026-07-13T15:14:01.929120,15.09766365,.0015607,97.6997,264.8543,181.7327,178.3850,0,U,69543,999,429,.15888E-3,.2505E-4,0
2026-134G,2026-134G,2026-07-13T15:11:44.962656,15.09851680,.0016052,97.7041,264.8718,182.5157,177.5994,0,U,69544,999,429,.16771E-3,.2655E-4,0
2026-134H,2026-134H,2026-07-13T16:45:23.095008,15.09918402,.0015918,97.7025,264.9352,183.7041,176.4073,0,U,69545,999,429,.16448423E-3,.2607E-4,0
STARLINK-37880,2026-135A,2026-07-14T22:00:03.000096,15.49158450,.0000191,97.2846,224.2103,148.3004,63.0347,0,U,69546,999,576,.13110148E-2,.71787E-3,0
STARLINK-37881,2026-135B,2026-07-14T22:00:03.000096,15.49151537,.00013031,97.2839,224.3039,65.2233,3.5229,0,U,69547,999,576,.14845165E-2,.8138E-3,0
STARLINK-37265,2026-135C,2026-07-14T22:00:03.000096,15.49128979,.00018512,97.2845,224.3830,83.7949,176.7007,0,U,69548,999,576,.14812154E-2,.81134E-3,0
STARLINK-37871,2026-135D,2026-07-14T22:00:03.000096,15.49151926,.00016237,97.2840,224.2932,71.3764,337.0905,0,U,69549,999,576,.11935353E-2,.65279E-3,0
STARLINK-37865,2026-135E,2026-07-14T22:00:03.000096,15.49153747,.00019452,97.2839,224.3051,90.8027,345.6271,0,U,69550,999,576,.11845484E-2,.64788E-3,0
STARLINK-37862,2026-135F,2026-07-14T22:00:03.000096,15.53352312,.00019072,97.2848,224.3775,99.6684,138.5514,0,U,69551,999,576,-.44514272E-1,-.244648E-1,0
STARLINK-37861,2026-135G,2026-07-14T22:00:03.000096,15.49172850,.00004847,97.2837,224.3293,131.4997,359.9235,0,U,69552,999,576,.11195493E-2,.61238E-3,0
STARLINK-37859,2026-135H,2026-07-14T22:00:03.000096,15.49146989,.00016332,97.2844,224.3465,79.6375,90.9304,0,U,69553,999,576,.11773677E-2,.64375E-3,0
STARLINK-37860,2026-135J,2026-07-14T22:00:03.000096,15.49125878,.00005824,97.2846,224.3837,102.2873,157.5351,0,U,69554,999,576,.14373127E-2,.78691E-3,0
STARLINK-37858,2026-135K,2026-07-14T22:00:03.000096,15.49129804,.00016095,97.2847,224.3716,88.6898,139.2481,0,U,69555,999,576,.1392344E-2,.76215E-3,0
STARLINK-37927,2026-135L,2026-07-14T22:00:03.000096,15.49155324,.00011183,97.2837,224.3235,86.6208,30.2033,0,U,69556,999,576,.11204045E-2,.61248E-3,0
STARLINK-37929,2026-135M,2026-07-14T22:00:03.000096,15.49154320,.00015765,97.2838,224.2830,93.9606,285.8942,0,U,69557,999,576,.14130835E-2,.77429E-3,0
STARLINK-37954,2026-135N,2026-07-14T22:00:03.000096,15.49156021,.0000844,97.2837,224.2862,92.6204,294.0564,0,U,69558,999,576,.14496964E-2,.79462E-3,0
STARLINK-37958,2026-135P,2026-07-14T22:00:03.000096,15.52373536,.00016528,97.2835,224.4458,55.7966,334.6389,0,U,69559,999,576,-.53008319E-1,-.2819815E-1,0
STARLINK-37950,2026-135Q,2026-07-14T22:00:03.000096,15.49135505,.00014029,97.2843,224.3852,88.8334,168.6995,0,U,69560,999,576,.13684342E-2,.74906E-3,0
STARLINK-37952,2026-135R,2026-07-14T22:00:03.000096,15.49154685,.00012476,97.2838,224.3350,70.1868,73.3184,0,U,69561,999,576,.11281013E-2,.61672E-3,0
STARLINK-37935,2026-135S,2026-07-14T22:00:03.000096,15.49156226,.00016633,97.2839,224.2897,89.1794,307.1236,0,U,69562,999,576,.13608597E-2,.74542E-3,0
STARLINK-37936,2026-135T,2026-07-14T22:00:03.000096,15.49155134,.00016723,97.2835,224.3223,88.3054,25.9617,0,U,69563,999,576,.11684172E-2,.63899E-3,0
STARLINK-37932,2026-135U,2026-07-14T22:00:03.000096,15.49148875,.00009663,97.2841,224.4201,79.3239,266.4345,0,U,69564,999,576,.12631991E-2,.69119E-3,0
STARLINK-37916,2026-135V,2026-07-14T22:00:03.000096,15.49162745,.00014331,97.2843,224.3812,86.8729,162.6515,0,U,69565,999,576,.13806538E-2,.75655E-3,0
STARLINK-37909,2026-135W,2026-07-14T22:00:03.000096,15.52874764,.00028013,97.2841,224.4904,90.5106,42.8853,0,U,69566,999,576,-.58721898E-1,-.3199248E-1,0
STARLINK-37934,2026-135X,2026-07-14T22:00:03.000096,15.49157909,.000127,97.2840,224.3819,60.5142,191.8241,0,U,69567,999,576,.12434719E-2,.68051E-3,0
